{
    "links": {
        "self": "http://www.neowsapp.com/rest/v1/neo/3662284?api_key=iIulBulltgU6a56xZRHN4H3l9WmuAYTsLGpBGhQ2"
    },
    "id": "3662284",
    "neo_reference_id": "3662284",
    "name": "(2014 DO7)",
    "designation": "2014 DO7",
    "nasa_jpl_url": "http://ssd.jpl.nasa.gov/sbdb.cgi?sstr=3662284",
    "absolute_magnitude_h": 23.7,
    "estimated_diameter": {
        "kilometers": {
            "estimated_diameter_min": 0.0483676488,
            "estimated_diameter_max": 0.1081533507
        },
        "meters": {
            "estimated_diameter_min": 48.3676488219,
            "estimated_diameter_max": 108.1533506775
        },
        "miles": {
            "estimated_diameter_min": 0.0300542543,
            "estimated_diameter_max": 0.0672033557
        },
        "feet": {
            "estimated_diameter_min": 158.6865169607,
            "estimated_diameter_max": 354.8338390368
        }
    },
    "is_potentially_hazardous_asteroid": false,
    "close_approach_data": [
        {
            "close_approach_date": "1909-05-07",
            "close_approach_date_full": "1909-May-07 23:05",
            "epoch_date_close_approach": -1914022500000,
            "relative_velocity": {
                "kilometers_per_second": "13.2208392949",
                "kilometers_per_hour": "47595.0214617962",
                "miles_per_hour": "29573.6954188589"
            },
            "miss_distance": {
                "astronomical": "0.3509285404",
                "lunar": "136.5112022156",
                "kilometers": "52498162.166048948",
                "miles": "32620845.3212855624"
            },
            "orbiting_body": "Earth"
        },
        {
            "close_approach_date": "2014-03-06",
            "close_approach_date_full": "2014-Mar-06 04:34",
            "epoch_date_close_approach": 1394080440000,
            "relative_velocity": {
                "kilometers_per_second": "9.2746427369",
                "kilometers_per_hour": "33388.7138526834",
                "miles_per_hour": "20746.4483380743"
            },
            "miss_distance": {
                "astronomical": "0.0703908738",
                "lunar": "27.3820499082",
                "kilometers": "10530324.787918806",
                "miles": "6543240.4091232828"
            },
            "orbiting_body": "Earth"
        }
    ],
    "orbital_data": {
        "orbit_id": "14",
        "orbit_determination_date": "2017-04-06 08:42:24",
        "first_observation_date": "2014-02-22",
        "last_observation_date": "2014-03-09",
        "data_arc_in_days": 15,
        "observations_used": 65,
        "orbit_uncertainty": "7",
        "minimum_orbit_intersection": ".0611502",
        "jupiter_tisserand_invariant": "4.101",
        "epoch_osculation": "2459000.5",
        "eccentricity": ".400753281465809",
        "semi_major_axis": "1.685183272139299",
        "inclination": "13.56239441265178",
        "ascending_node_longitude": "154.3742856198217",
        "orbital_period": "799.0411322852702",
        "perihelion_distance": "1.009840545958186",
        "perihelion_argument": "35.18017956431765",
        "aphelion_distance": "2.360525998320413",
        "perihelion_time": "2459142.802190488592",
        "mean_anomaly": "295.8871696262017",
        "mean_motion": ".4505400103376335",
        "equinox": "J2000",
        "orbit_class": {
            "orbit_class_type": "APO",
            "orbit_class_description": "Near-Earth asteroid orbits which cross the Earth’s orbit similar to that of 1862 Apollo",
            "orbit_class_range": "a (semi-major axis) > 1.0 AU; q (perihelion) < 1.017 AU"
        }
    },
    "is_sentry_object": false
}